H1 CPF 01  gfz 2022 11 16 13  8202 tandemx   
H2 1003001  6202 36605    2022 11 16 12 59 42 2022 11 21 00 00 42   120 1 1  0 0 0
H9
10 0 59900  76302.000000  0   -1348821.959   2676620.170  -6209544.170
10 0 59900  76422.000000  0    -725431.448   2084349.864  -6532499.157
10 0 59900  76542.000000  0    -100248.101   1445046.488  -6741480.264
10 0 59900  76662.000000  0     515171.562    769865.863  -6832892.474
10 0 59900  76782.000000  0    1109648.817     70771.052  -6805165.248
10 0 59900  76902.000000  0    1672581.865   -639675.739  -6658776.427
10 0 59900  77022.000000  0    2194129.813  -1348533.289  -6396243.543
10 0 59900  77142.000000  0    2665381.463  -2042710.889  -6022085.581
10 0 59900  77262.000000  0    3078506.341  -2709204.201  -5542754.023
10 0 59900  77382.000000  0    3426887.065  -3335337.298  -4966534.062
10 0 59900  77502.000000  0    3705228.909  -3909004.847  -4303410.704
10 0 59900  77622.000000  0    3909643.110  -4418907.108  -3564905.733
10 0 59900  77742.000000  0    4037705.291  -4854776.520  -2763887.497
10 0 59900  77862.000000  0    4088486.868  -5207591.153  -1914352.885
10 0 59900  77982.000000  0    4062555.503  -5469768.543  -1031183.765
10 0 59900  78102.000000  0    3961945.635  -5635333.544   -129883.983
10 0 59900  78222.000000  0    3790098.520  -5700056.553    773698.672
10 0 59900  78342.000000  0    3551773.524  -5661558.052   1663658.755
10 0 59900  78462.000000  0    3252932.486  -5519375.368   2524323.368
10 0 59900  78582.000000  0    2900598.584  -5274989.775   3340536.127
10 0 59900  78702.000000  0    2502695.846  -4931815.438   4097930.440
10 0 59900  78822.000000  0    2067873.297  -4495149.147   4783186.786
10 0 59900  78942.000000  0    1605317.123  -3972082.499   5384268.649
10 0 59900  79062.000000  0    1124556.434  -3371379.249   5890633.202
10 0 59900  79182.000000  0     635265.375  -2703319.979   6293412.350
10 0 59900  79302.000000  0     147067.982  -1979519.812   6585561.138
10 0 59900  79422.000000  0    -330650.286  -1212722.693   6761974.061
10 0 59900  79542.000000  0    -788921.684   -416575.355   6819570.109
10 0 59900  79662.000000  0   -1219363.454    394616.840   6757343.431
10 0 59900  79782.000000  0   -1614330.698   1206146.718   6576379.474
10 0 59900  79902.000000  0   -1967051.889   2003171.070   6279837.056
10 0 59900  80022.000000  0   -2271745.704   2770981.592   5872896.748
10 0 59900  80142.000000  0   -2523716.618   3495277.216   5362675.575
10 0 59900  80262.000000  0   -2719428.716   4162433.090   4758109.431
10 0 59900  80382.000000  0   -2856556.499   4759762.402   4069802.542
10 0 59900  80502.000000  0   -2934010.377   5275764.922   3309845.391
10 0 59900  80622.000000  0   -2951936.277   5700356.495   2491603.201
10 0 59900  80742.000000  0   -2911689.476   6025073.397   1629479.314
10 0 59900  80862.000000  0   -2815783.076   6243247.375    738657.689
10 0 59900  80982.000000  0   -2667811.782   6350147.095   -165170.839
10 0 59900  81102.000000  0   -2472353.566   6343081.792  -1066093.450
10 0 59900  81222.000000  0   -2234851.387   6221463.922  -1948266.479
10 0 59900  81342.000000  0   -1961475.815   5986825.295  -2796204.427
10 0 59900  81462.000000  0   -1658974.632   5642790.692  -3595055.250
10 0 59900  81582.000000  0   -1334514.742   5195012.660  -4330861.641
10 0 59900  81702.000000  0    -995519.216   4651066.637  -4990802.648
10 0 59900  81822.000000  0    -649503.607   4020312.192  -5563410.837
10 0 59900  81942.000000  0    -303914.548   3313722.691  -6038764.067
10 0 59900  82062.000000  0      34025.965   2543685.985  -6408647.486
10 0 59900  82182.000000  0     357466.372   1723782.521  -6666683.046
10 0 59900  82302.000000  0     660059.348    868546.247  -6808429.420
10 0 59900  82422.000000  0     936082.351     -6790.379  -6831450.443
10 0 59900  82542.000000  0    1180542.435   -886562.861  -6735352.079
10 0 59900  82662.000000  0    1389263.792  -1754948.321  -6521786.792
10 0 59900  82782.000000  0    1558957.506  -2596241.833  -6194428.174
10 0 59900  82902.000000  0    1687273.495  -3395134.191  -5758916.143
10 0 59900  83022.000000  0    1772832.380  -4136989.441  -5222770.844
10 0 59900  83142.000000  0    1815237.224  -4808114.318  -4595272.315
10 0 59900  83262.000000  0    1815065.222  -5396013.766  -3887310.912
10 0 59900  83382.000000  0    1773838.778  -5889631.793  -3111208.931
10 0 59900  83502.000000  0    1693975.310  -6279570.220  -2280513.097
10 0 59900  83622.000000  0    1578717.984  -6558278.969  -1409760.946
10 0 59900  83742.000000  0    1432048.348  -6720213.294   -514226.325
10 0 59900  83862.000000  0    1258582.055  -6761954.801    390353.267
10 0 59900  83982.000000  0    1063451.414  -6682288.526   1288059.931
10 0 59900  84102.000000  0     852175.676  -6482238.426   2163084.263
10 0 59900  84222.000000  0     630524.810  -6165055.478   3000014.172
10 0 59900  84342.000000  0     404377.629  -5736159.965   3784114.311
10 0 59900  84462.000000  0     179579.195  -5203041.484   4501590.045
10 0 59900  84582.000000  0     -38198.178  -4575119.509   5139832.857
10 0 59900  84702.000000  0    -243587.610  -3863566.707   5687641.688
10 0 59900  84822.000000  0    -431650.253  -3081100.299   6135417.269
10 0 59900  84942.000000  0    -597986.065  -2241745.282   6475324.418
10 0 59900  85062.000000  0    -738830.386  -1360578.429   6701421.358
10 0 59900  85182.000000  0    -851134.423   -453455.694   6809758.634
10 0 59900  85302.000000  0    -932628.848    463274.464   6798444.867
10 0 59900  85422.000000  0    -981868.726   1373065.858   6667677.604
10 0 59900  85542.000000  0    -998258.667   2259472.685   6419739.848
10 0 59900  85662.000000  0    -982058.730   3106446.423   6058962.703
10 0 59900  85782.000000  0    -934371.255   3898627.596   5591654.457
10 0 59900  85902.000000  0    -857107.911   4621627.333   5025995.602
10 0 59900  86022.000000  0    -752938.336   5262294.493   4371902.280
10 0 59900  86142.000000  0    -625220.824   5808963.474   3640856.155
10 0 59900  86262.000000  0    -477916.341   6251674.190   2845706.894
10 0 59900  86382.000000  0    -315489.284   6582367.025   2000447.453
10 0 59901    102.000000  0    -142793.591   6795038.700   1119961.760
10 0 59901    222.000000  0      35050.971   6885857.421    219757.038
10 0 59901    342.000000  0     212788.904   6853236.229   -684316.837
10 0 59901    462.000000  0     385163.059   6697860.824  -1576356.327
10 0 59901    582.000000  0     547046.950   6422669.581  -2440692.540
10 0 59901    702.000000  0     693573.098   6032789.860  -3262172.107
10 0 59901    822.000000  0     820255.352   5535432.370  -4026426.196
10 0 59901    942.000000  0     923101.567   4939745.691  -4720122.120
10 0 59901   1062.000000  0     998714.107   4256635.431  -5331192.189
10 0 59901   1182.000000  0    1044375.902   3498553.640  -5849036.123
10 0 59901   1302.000000  0    1058119.840   2679263.518  -6264695.599
10 0 59901   1422.000000  0    1038780.992   1813583.929  -6570997.484
10 0 59901   1542.000000  0     986030.638    917121.248  -6762665.899
10 0 59901   1662.000000  0     900391.736      5990.858  -6836404.434
10 0 59901   1782.000000  0     783236.035   -903467.694  -6790946.414
10 0 59901   1902.000000  0     636762.038  -1794976.928  -6627072.690
10 0 59901   2022.000000  0     463955.421  -2652603.835  -6347599.207
10 0 59901   2142.000000  0     268531.520  -3461038.724  -5957336.514
10 0 59901   2262.000000  0      54860.033  -4205866.817  -5463015.239
10 0 59901   2382.000000  0    -172125.209  -4873825.177  -4873180.464
10 0 59901   2502.000000  0    -407031.634  -5453043.402  -4198055.947
10 0 59901   2622.000000  0    -644126.578  -5933263.097  -3449377.452
10 0 59901   2742.000000  0    -877466.529  -6306030.379  -2640196.744
10 0 59901   2862.000000  0   -1101034.571  -6564857.271  -1784659.573
10 0 59901   2982.000000  0   -1308882.751  -6705348.112   -897759.244
10 0 59901   3102.000000  0   -1495275.708  -6725285.322      4929.440
10 0 59901   3222.000000  0   -1654832.214  -6624672.187    907529.672
10 0 59901   3342.000000  0   -1782661.244  -6405731.421   1794149.912
10 0 59901   3462.000000  0   -1874488.545  -6072858.745   2649173.027
10 0 59901   3582.000000  0   -1926770.069  -5632531.956   3457540.354
10 0 59901   3702.000000  0   -1936789.293  -5093178.396   4205023.618
10 0 59901   3822.000000  0   -1902735.924  -4465005.293   4878478.880
10 0 59901   3942.000000  0   -1823765.501  -3759798.183   5466078.625
10 0 59901   4062.000000  0   -1700037.887  -2990690.019   5957518.846
10 0 59901   4182.000000  0   -1532732.649  -2171907.693   6344194.549
10 0 59901   4302.000000  0   -1324042.439  -1318504.153   6619343.968
10 0 59901   4422.000000  0   -1077145.694   -446078.342   6778161.384
10 0 59901   4542.000000  0    -796158.966    429511.528   6817874.997
10 0 59901   4662.000000  0    -486068.439   1292435.297   6737792.622
10 0 59901   4782.000000  0    -152641.225   2127176.840   6539313.372
10 0 59901   4902.000000  0     197681.699   2918812.906   6225904.459
10 0 59901   5022.000000  0     557908.675   3653280.166   5803044.285
10 0 59901   5142.000000  0     920634.753   4317627.980   5278132.228
10 0 59901   5262.000000  0    1278191.687   4900251.589   4660365.070
10 0 59901   5382.000000  0    1622807.538   5391101.931   3960580.694
10 0 59901   5502.000000  0    1946772.483   5781866.617   3191073.368
10 0 59901   5622.000000  0    2242609.480   6066121.798   2365379.552
10 0 59901   5742.000000  0    2503241.847   6239446.368   1498035.957
10 0 59901   5862.000000  0    2722156.525   6299496.025    604317.555
10 0 59901   5982.000000  0    2893556.320   6246034.297   -300038.884
10 0 59901   6102.000000  0    3012499.417   6080922.491  -1199119.648
10 0 59901   6222.000000  0    3075022.302   5808067.104  -2077122.261
10 0 59901   6342.000000  0    3078242.500   5433327.113  -2918640.285
99
